
# Worst residual: 11.63 km
# MJD 57830.000000 (2017 Mar 18  0:00)
2010-050B = RV223A9 = Chang'e 2 hardware
1 99999U 10050B   17077.49919926  .00000000  00000-0  00000-0 2    07
2 99999 036.3818 179.5122 5968501 221.1778 137.2840 00.04887456    02

# Worst residual: 14.68 km
# MJD 57831.000000 (2017 Mar 19  0:00)
2010-050B = RV223A9 = Chang'e 2 hardware
1 99999U 10050B   17078.49919926  .00000000  00000-0  00000-0 2    08
2 99999 036.4075 179.5382 5998790 220.9986 155.1706 00.04904585    00

# Worst residual: 17.46 km
# MJD 57832.000000 (2017 Mar 20  0:00)
2010-050B = RV223A9 = Chang'e 2 hardware
1 99999U 10050B   17079.49919926  .00000000  00000-0  00000-0 2    09
2 99999 036.4800 179.6263 6038648 220.8231 173.0535 00.04924044    06

# Worst residual: 19.54 km
# MJD 57833.000000 (2017 Mar 21  0:00)
2010-050B = RV223A9 = Chang'e 2 hardware
1 99999U 10050B   17080.49919926  .00000000  00000-0  00000-0 2    01
2 99999 036.5720 179.7613 6085087 220.6793 190.9489 00.04945424    09

# Worst residual: 20.81 km
# MJD 57834.000000 (2017 Mar 22  0:00)
2010-050B = RV223A9 = Chang'e 2 hardware
1 99999U 10050B   17081.49919926  .00000000  00000-0  00000-0 2    02
2 99999 036.6653 179.9259 6135297 220.5893 208.8717 00.04968213    06

# Worst residual: 21.47 km
# MJD 57835.000000 (2017 Mar 23  0:00)
2010-050B = RV223A9 = Chang'e 2 hardware
1 99999U 10050B   17082.49919926  .00000000  00000-0  00000-0 2    03
2 99999 036.7471 180.1007 6186454 220.5693 226.8354 00.04991739    05

# Worst residual: 21.38 km
# MJD 57836.000000 (2017 Mar 24  0:00)
2010-050B = RV223A9 = Chang'e 2 hardware
1 99999U 10050B   17083.49919926  .00000000  00000-0  00000-0 2    04
2 99999 036.8092 180.2647 6235683 220.6283 244.8529 00.05015103    08

# Worst residual: 20.51 km
# MJD 57837.000000 (2017 Mar 25  0:00)
2010-050B = RV223A9 = Chang'e 2 hardware
1 99999U 10050B   17084.49919926  .00000000  00000-0  00000-0 2    05
2 99999 036.8480 180.3975 6280113 220.7647 262.9375 00.05037023    02

# Worst residual: 18.77 km
# MJD 57838.000000 (2017 Mar 26  0:00)
2010-050B = RV223A9 = Chang'e 2 hardware
1 99999U 10050B   17085.49919926  .00000000  00000-0  00000-0 2    06
2 99999 036.8653 180.4826 6317125 220.9604 281.1023 00.05055562    00

# Worst residual: 16.15 km
# MJD 57839.000000 (2017 Mar 27  0:00)
2010-050B = RV223A9 = Chang'e 2 hardware
1 99999U 10050B   17086.49919926  .00000000  00000-0  00000-0 2    07
2 99999 036.8688 180.5147 6344877 221.1720 299.3578 00.05067598    09

# Worst residual: 12.90 km
# MJD 57840.000000 (2017 Mar 28  0:00)
2010-050B = RV223A9 = Chang'e 2 hardware
1 99999U 10050B   17087.49919926  .00000000  00000-0  00000-0 2    08
2 99999 036.8693 180.5076 6363527 221.3209 317.7034 00.05067736    09

# Worst residual: 10.94 km
# MJD 57841.000000 (2017 Mar 29  0:00)
2010-050B = RV223A9 = Chang'e 2 hardware
1 99999U 10050B   17088.49919926  .00000000  00000-0  00000-0 2    09
2 99999 036.8699 180.5025 6377798 221.2921 336.1002 00.05046142    02

# Worst residual: 14.73 km
# MJD 57842.000000 (2017 Mar 30  0:00)
2010-050B = RV223A9 = Chang'e 2 hardware
1 99999U 10050B   17089.49919926  .00000000  00000-0  00000-0 2    00
2 99999 036.8388 180.5259 6395247 221.0842 354.3546 00.05002174    07

# Worst residual: 9.02 km
# MJD 57843.000000 (2017 Mar 31  0:00)
2010-050B = RV223A9 = Chang'e 2 hardware
1 99999U 10050B   17090.49919926  .00000000  00000-0  00000-0 2    02
2 99999 036.8121 180.4761 6383342 221.0660 012.4349 00.05026697    09

# Worst residual: 11.56 km
# MJD 57844.000000 (2017 Apr  1  0:00)
2010-050B = RV223A9 = Chang'e 2 hardware
1 99999U 10050B   17091.49919926  .00000000  00000-0  00000-0 2    03
2 99999 036.8003 180.4931 6377939 221.1758 030.5209 00.05025691    00

# Worst residual: 12.90 km
# MJD 57845.000000 (2017 Apr  2  0:00)
2010-050B = RV223A9 = Chang'e 2 hardware
1 99999U 10050B   17092.49919926  .00000000  00000-0  00000-0 2    04
2 99999 036.7278 180.5430 6374612 221.3703 048.4115 00.05005172    01

# Worst residual: 12.39 km
# MJD 57846.000000 (2017 Apr  3  0:00)
2010-050B = RV223A9 = Chang'e 2 hardware
1 99999U 10050B   17093.49919926  .00000000  00000-0  00000-0 2    05
2 99999 036.6026 180.5675 6369153 221.5588 066.1922 00.04986774    07

# Worst residual: 10.61 km
# MJD 57847.000000 (2017 Apr  4  0:00)
2010-050B = RV223A9 = Chang'e 2 hardware
1 99999U 10050B   17094.49919926  .00000000  00000-0  00000-0 2    06
2 99999 036.4507 180.5484 6363791 221.7043 083.9667 00.04975649    09

# Worst residual: 8.63 km
# MJD 57848.000000 (2017 Apr  5  0:00)
2010-050B = RV223A9 = Chang'e 2 hardware
1 99999U 10050B   17095.49919926  .00000000  00000-0  00000-0 2    07
2 99999 036.2984 180.4901 6361653 221.7881 101.8217 00.04972582    08

# Worst residual: 9.04 km
# MJD 57849.000000 (2017 Apr  6  0:00)
2010-050B = RV223A9 = Chang'e 2 hardware
1 99999U 10050B   17096.49919926  .00000000  00000-0  00000-0 2    08
2 99999 036.1655 180.4089 6366072 221.7977 119.8259 00.04977213    06

# Worst residual: 13.22 km
# MJD 57850.000000 (2017 Apr  7  0:00)
2010-050B = RV223A9 = Chang'e 2 hardware
1 99999U 10050B   17097.49919926  .00000000  00000-0  00000-0 2    09
2 99999 036.0605 180.3216 6380508 221.7313 138.0303 00.04988878    07

# Worst residual: 19.08 km
# MJD 57851.000000 (2017 Apr  8  0:00)
2010-050B = RV223A9 = Chang'e 2 hardware
1 99999U 10050B   17098.49919926  .00000000  00000-0  00000-0 2    00
2 99999 035.9757 180.2321 6407968 221.6109 156.4621 00.05006581    01

# Worst residual: 25.09 km
# MJD 57852.000000 (2017 Apr  9  0:00)
2010-050B = RV223A9 = Chang'e 2 hardware
1 99999U 10050B   17099.49919926  .00000000  00000-0  00000-0 2    01
2 99999 035.8883 180.1184 6449308 221.4951 175.1128 00.05028482    07

# Worst residual: 28.97 km
# MJD 57853.000000 (2017 Apr 10  0:00)
2010-050B = RV223A9 = Chang'e 2 hardware
1 99999U 10050B   17100.49919926  .00000000  00000-0  00000-0 2    04
2 99999 035.7742 179.9392 6501098 221.4653 193.9292 00.05051432    02

# Worst residual: 30.11 km
# MJD 57854.000000 (2017 Apr 11  0:00)
2010-050B = RV223A9 = Chang'e 2 hardware
1 99999U 10050B   17101.49919926  .00000000  00000-0  00000-0 2    05
2 99999 035.6310 179.6678 6556027 221.5748 212.8316 00.05071635    09
